ISS (ZARYA)             
1 25544U 98067A   26079.16224065  .00008474  00000+0  16520-3 0  9999
2 25544  51.6345  20.5881 0006234 211.0869 148.9751 15.48388697557957
POISK                   
1 36086U 09060A   26079.16224065  .00008474  00000+0  16520-3 0  9997
2 36086  51.6345  20.5881 0006234 211.0869 148.9751 15.48388697557714
CSS (TIANHE)            
1 48274U 21035A   26079.08035554  .00021521  00000+0  25018-3 0  9999
2 48274  41.4665 144.9122 0005723 338.4006  21.6591 15.61198195279230
ISS (NAUKA)             
1 49044U 21066A   26079.16224065  .00008474  00000+0  16520-3 0  9995
2 49044  51.6345  20.5881 0006234 211.0869 148.9751 15.48388697557756
FREGAT DEB              
1 49271U 11037PF  26078.75659827  .00009794  00000+0  13890-1 0  9997
2 49271  51.6477 270.5314 0963999  82.5020 288.4151 12.40502650213942
CSS (WENTIAN)           
1 53239U 22085A   26079.08035554  .00021521  00000+0  25018-3 0  9992
2 53239  41.4665 144.9122 0005723 338.4006  21.6591 15.61198195279237
CSS (MENGTIAN)          
1 54216U 22143A   26079.08035554  .00021521  00000+0  25018-3 0  9993
2 54216  41.4665 144.9122 0005723 338.4006  21.6591 15.61198195279086
TIANZHOU-9              
1 64786U 25149A   26079.08035554  .00021521  00000+0  25018-3 0  9995
2 64786  41.4665 144.9122 0005723 338.4006  21.6591 15.61198195279135
PROGRESS-MS 32          
1 65586U 25204A   26078.83953712  .00010217  00000+0  19745-3 0  9993
2 65586  51.6344  22.1830 0006241 209.8635 150.1998 15.48385427554506
YOTSUBA-KULOVER         
1 65941U 98067XN  26079.18444815  .00211288  00000+0  84129-3 0  9992
2 65941  51.6210   2.6532 0004984 147.6788 212.4522 15.85487080 25164
BOTAN                   
1 65943U 98067XQ  26079.19185145  .00195414  00000+0  80051-3 0  9995
2 65943  51.6237   2.7238 0005696 148.5416 211.5929 15.84935092 25169
HRC MONOBLOCK CAMERA    
1 66052U 98067XR  26079.18738177  .00034616  00000+0  37397-3 0  9996
2 66052  51.6296  12.5051 0003871 140.9614 219.1660 15.63276541 24032
